GALAXY 13 (HORIZONS-1)  
1 27954U 03044A   23258.58157383  .00000048  00000+0  00000+0 0  9998
2 27954   0.0065 177.0476 0002352  14.7423 244.8377  1.00272887 36486
IRS-P6 (RESOURCESAT-1)  
1 28051U 03046A   23258.61059101  .00000384  00000+0  14827-3 0  9991
2 28051  98.3513 320.6837 0059859 102.5853  57.5632 14.34424032 36235
DMSP 5D-3 F16 (USA 172) 
1 28054U 03048A   23258.75994594  .00000233  00000+0  14712-3 0  9991
2 28054  99.0175 257.7428 0008335 108.1965  64.5219 14.13846998 27353
CHUANGXIN 1 (CX-1)      
1 28058U 03049B   23258.59650374  .00000356  00000+0  10962-3 0  9992
2 28058  98.6305 128.4736 0012708 353.4892   6.6133 14.47435237 50744
YAMAL 202               
1 28089U 03053A   23258.61729118 -.00000077  00000+0  00000+0 0  9996
2 28089   3.7815  82.9156 0005887  88.8364 208.2817  1.00272225 72614
UFO 11 (USA 174)        
1 28117U 03057A   23258.46393843 -.00000096  00000+0  00000+0 0  9998
2 28117   7.6403  37.3724 0003977 114.6361  84.3735  1.00270525 72332
NAVSTAR 53 (USA 175)    
1 28129U 03058A   23257.75547011 -.00000024  00000+0  00000+0 0  9992
2 28129  54.2693  62.7022 0065941 331.1436  28.5221  2.00555773144607
USA 176 (DSP 22)        
1 28158U 04004A   23258.39466847 -.00000215  00000+0  00000+0 0  9996
2 28158  10.6883  32.6700 0001516 231.2848 319.6289  1.00273378 22846
ABS-4 (MOBISAT-1)       
1 28184U 04007A   23258.74771894  .00000043  00000+0  00000+0 0  9996
2 28184   3.4734  84.0158 0004982 110.0278 130.5890  1.00268936 71508
EUTELSAT 7A             
1 28187U 04008A   23258.60112142  .00000106  00000+0  00000+0 0  9990
2 28187   3.2562  83.6454 0003930  93.2754 254.5904  1.00273608 71263
NAVSTAR 54 (USA 177)    
1 28190U 04009A   23258.31441174 -.00000045  00000+0  00000+0 0  9996
2 28190  55.6818 316.0332 0092791 139.2007 265.6319  2.00567105142772
SHIYAN 1 (SY-1)         
1 28220U 04012A   23258.55682970  .00005444  00000+0  37035-3 0  9990
2 28220  97.9881 270.4257 0008445 237.5114 122.5297 15.06742801 58420
AMC-11 (GE-11)          
1 28252U 04017A   23258.59237843 -.00000049  00000+0  00000+0 0  9994
2 28252   0.0531 316.6827 0002221 253.8732 245.8978  1.00272879 70792
INTELSAT 10-02          
1 28358U 04022A   23258.60090646 -.00000011  00000+0  00000+0 0  9996
2 28358   0.0367 263.5718 0000894 278.0349  28.0421  1.00272034 70463
NAVSTAR 55 (USA 178)    
1 28361U 04023A   23257.26507649  .00000028  00000+0  00000+0 0  9995
2 28361  54.3036 127.4934 0146568 272.6159 269.0212  2.00558264140846
APRIZESAT 2             
1 28366U 04025A   23258.54820570  .00000280  00000+0  10130-3 0  9994
2 28366  98.1062 107.9410 0108137  45.5694 315.4280 14.37066108  7172
SAUDICOMSAT 1           
1 28369U 04025D   23258.67172061  .00000705  00000+0  17975-3 0  9992
2 28369  98.5018 230.0440 0032235 220.0830 139.7987 14.53408864 18011
