[{"OBJECT_NAME":"GALAXY 13 (HORIZONS-1)","OBJECT_ID":"2003-044A","EPOCH":"2023-09-15T13:57:27.978912","MEAN_MOTION":1.00272887,"ECCENTRICITY":0.0002352,"INCLINATION":0.0065,"RA_OF_ASC_NODE":177.0476,"ARG_OF_PERICENTER":14.7423,"MEAN_ANOMALY":244.8377,"EPHEMERIS_TYPE":0,"CLASSIFICATION_TYPE":"U","NORAD_CAT_ID":27954,"ELEMENT_SET_NO":999,"REV_AT_EPOCH":3648,"BSTAR":0,"MEAN_MOTION_DOT":4.8e-7,"MEAN_MOTION_DDOT":0},{"OBJECT_NAME":"IRS-P6 (RESOURCESAT-1)","OBJECT_ID":"2003-046A","EPOCH":"2023-09-15T14:39:15.063264","MEAN_MOTION":14.34424032,"ECCENTRICITY":0.0059859,"INCLINATION":98.3513,"RA_OF_ASC_NODE":320.6837,"ARG_OF_PERICENTER":102.5853,"MEAN_ANOMALY":57.5632,"EPHEMERIS_TYPE":0,"CLASSIFICATION_TYPE":"U","NORAD_CAT_ID":28051,"ELEMENT_SET_NO":999,"REV_AT_EPOCH":3623,"BSTAR":0.00014827,"MEAN_MOTION_DOT":3.84e-6,"MEAN_MOTION_DDOT":0},{"OBJECT_NAME":"DMSP 5D-3 F16 (USA 172)","OBJECT_ID":"2003-048A","EPOCH":"2023-09-15T18:14:19.329216","MEAN_MOTION":14.13846998,"ECCENTRICITY":0.0008335,"INCLINATION":99.0175,"RA_OF_ASC_NODE":257.7428,"ARG_OF_PERICENTER":108.1965,"MEAN_ANOMALY":64.5219,"EPHEMERIS_TYPE":0,"CLASSIFICATION_TYPE":"U","NORAD_CAT_ID":28054,"ELEMENT_SET_NO":999,"REV_AT_EPOCH":2735,"BSTAR":0.00014712,"MEAN_MOTION_DOT":2.33e-6,"MEAN_MOTION_DDOT":0},{"OBJECT_NAME":"CHUANGXIN 1 (CX-1)","OBJECT_ID":"2003-049B","EPOCH":"2023-09-15T14:18:57.923136","MEAN_MOTION":14.47435237,"ECCENTRICITY":0.0012708,"INCLINATION":98.6305,"RA_OF_ASC_NODE":128.4736,"ARG_OF_PERICENTER":353.4892,"MEAN_ANOMALY":6.6133,"EPHEMERIS_TYPE":0,"CLASSIFICATION_TYPE":"U","NORAD_CAT_ID":28058,"ELEMENT_SET_NO":999,"REV_AT_EPOCH":5074,"BSTAR":0.00010962,"MEAN_MOTION_DOT":3.56e-6,"MEAN_MOTION_DDOT":0},{"OBJECT_NAME":"YAMAL 202","OBJECT_ID":"2003-053A","EPOCH":"2023-09-15T14:48:53.957952","MEAN_MOTION":1.00272225,"ECCENTRICITY":0.0005887,"INCLINATION":3.7815,"RA_OF_ASC_NODE":82.9156,"ARG_OF_PERICENTER":88.8364,"MEAN_ANOMALY":208.2817,"EPHEMERIS_TYPE":0,"CLASSIFICATION_TYPE":"U","NORAD_CAT_ID":28089,"ELEMENT_SET_NO":999,"REV_AT_EPOCH":7261,"BSTAR":0,"MEAN_MOTION_DOT":-7.7e-7,"MEAN_MOTION_DDOT":0},{"OBJECT_NAME":"UFO 11 (USA 174)","OBJECT_ID":"2003-057A","EPOCH":"2023-09-15T11:08:04.280352","MEAN_MOTION":1.00270525,"ECCENTRICITY":0.0003977,"INCLINATION":7.6403,"RA_OF_ASC_NODE":37.3724,"ARG_OF_PERICENTER":114.6361,"MEAN_ANOMALY":84.3735,"EPHEMERIS_TYPE":0,"CLASSIFICATION_TYPE":"U","NORAD_CAT_ID":28117,"ELEMENT_SET_NO":999,"REV_AT_EPOCH":7233,"BSTAR":0,"MEAN_MOTION_DOT":-9.6e-7,"MEAN_MOTION_DDOT":0},{"OBJECT_NAME":"NAVSTAR 53 (USA 175)","OBJECT_ID":"2003-058A","EPOCH":"2023-09-14T18:07:52.617504","MEAN_MOTION":2.00555773,"ECCENTRICITY":0.0065941,"INCLINATION":54.2693,"RA_OF_ASC_NODE":62.7022,"ARG_OF_PERICENTER":331.1436,"MEAN_ANOMALY":28.5221,"EPHEMERIS_TYPE":0,"CLASSIFICATION_TYPE":"U","NORAD_CAT_ID":28129,"ELEMENT_SET_NO":999,"REV_AT_EPOCH":14460,"BSTAR":0,"MEAN_MOTION_DOT":-2.4e-7,"MEAN_MOTION_DDOT":0},{"OBJECT_NAME":"USA 176 (DSP 22)","OBJECT_ID":"2004-004A","EPOCH":"2023-09-15T09:28:19.355808","MEAN_MOTION":1.00273378,"ECCENTRICITY":0.0001516,"INCLINATION":10.6883,"RA_OF_ASC_NODE":32.67,"ARG_OF_PERICENTER":231.2848,"MEAN_ANOMALY":319.6289,"EPHEMERIS_TYPE":0,"CLASSIFICATION_TYPE":"U","NORAD_CAT_ID":28158,"ELEMENT_SET_NO":999,"REV_AT_EPOCH":2284,"BSTAR":0,"MEAN_MOTION_DOT":-2.15e-6,"MEAN_MOTION_DDOT":0},{"OBJECT_NAME":"ABS-4 (MOBISAT-1)","OBJECT_ID":"2004-007A","EPOCH":"2023-09-15T17:56:42.916416","MEAN_MOTION":1.00268936,"ECCENTRICITY":0.0004982,"INCLINATION":3.4734,"RA_OF_ASC_NODE":84.0158,"ARG_OF_PERICENTER":110.0278,"MEAN_ANOMALY":130.589,"EPHEMERIS_TYPE":0,"CLASSIFICATION_TYPE":"U","NORAD_CAT_ID":28184,"ELEMENT_SET_NO":999,"REV_AT_EPOCH":7150,"BSTAR":0,"MEAN_MOTION_DOT":4.3e-7,"MEAN_MOTION_DDOT":0},{"OBJECT_NAME":"EUTELSAT 7A","OBJECT_ID":"2004-008A","EPOCH":"2023-09-15T14:25:36.890688","MEAN_MOTION":1.00273608,"ECCENTRICITY":0.000393,"INCLINATION":3.2562,"RA_OF_ASC_NODE":83.6454,"ARG_OF_PERICENTER":93.2754,"MEAN_ANOMALY":254.5904,"EPHEMERIS_TYPE":0,"CLASSIFICATION_TYPE":"U","NORAD_CAT_ID":28187,"ELEMENT_SET_NO":999,"REV_AT_EPOCH":7126,"BSTAR":0,"MEAN_MOTION_DOT":1.06e-6,"MEAN_MOTION_DDOT":0},{"OBJECT_NAME":"NAVSTAR 54 (USA 177)","OBJECT_ID":"2004-009A","EPOCH":"2023-09-15T07:32:45.174336","MEAN_MOTION":2.00567105,"ECCENTRICITY":0.0092791,"INCLINATION":55.6818,"RA_OF_ASC_NODE":316.0332,"ARG_OF_PERICENTER":139.2007,"MEAN_ANOMALY":265.6319,"EPHEMERIS_TYPE":0,"CLASSIFICATION_TYPE":"U","NORAD_CAT_ID":28190,"ELEMENT_SET_NO":999,"REV_AT_EPOCH":14277,"BSTAR":0,"MEAN_MOTION_DOT":-4.5e-7,"MEAN_MOTION_DDOT":0},{"OBJECT_NAME":"SHIYAN 1 (SY-1)","OBJECT_ID":"2004-012A","EPOCH":"2023-09-15T13:21:50.086080","MEAN_MOTION":15.06742801,"ECCENTRICITY":0.0008445,"INCLINATION":97.9881,"RA_OF_ASC_NODE":270.4257,"ARG_OF_PERICENTER":237.5114,"MEAN_ANOMALY":122.5297,"EPHEMERIS_TYPE":0,"CLASSIFICATION_TYPE":"U","NORAD_CAT_ID":28220,"ELEMENT_SET_NO":999,"REV_AT_EPOCH":5842,"BSTAR":0.00037035,"MEAN_MOTION_DOT":5.444e-5,"MEAN_MOTION_DDOT":0},{"OBJECT_NAME":"AMC-11 (GE-11)","OBJECT_ID":"2004-017A","EPOCH":"2023-09-15T14:13:01.496352","MEAN_MOTION":1.00272879,"ECCENTRICITY":0.0002221,"INCLINATION":0.0531,"RA_OF_ASC_NODE":316.6827,"ARG_OF_PERICENTER":253.8732,"MEAN_ANOMALY":245.8978,"EPHEMERIS_TYPE":0,"CLASSIFICATION_TYPE":"U","NORAD_CAT_ID":28252,"ELEMENT_SET_NO":999,"REV_AT_EPOCH":7079,"BSTAR":0,"MEAN_MOTION_DOT":-4.9e-7,"MEAN_MOTION_DDOT":0},{"OBJECT_NAME":"INTELSAT 10-02","OBJECT_ID":"2004-022A","EPOCH":"2023-09-15T14:25:18.318144","MEAN_MOTION":1.00272034,"ECCENTRICITY":8.94e-5,"INCLINATION":0.0367,"RA_OF_ASC_NODE":263.5718,"ARG_OF_PERICENTER":278.0349,"MEAN_ANOMALY":28.0421,"EPHEMERIS_TYPE":0,"CLASSIFICATION_TYPE":"U","NORAD_CAT_ID":28358,"ELEMENT_SET_NO":999,"REV_AT_EPOCH":7046,"BSTAR":0,"MEAN_MOTION_DOT":-1.1e-7,"MEAN_MOTION_DDOT":0},{"OBJECT_NAME":"NAVSTAR 55 (USA 178)","OBJECT_ID":"2004-023A","EPOCH":"2023-09-14T06:21:42.608736","MEAN_MOTION":2.00558264,"ECCENTRICITY":0.0146568,"INCLINATION":54.3036,"RA_OF_ASC_NODE":127.4934,"ARG_OF_PERICENTER":272.6159,"MEAN_ANOMALY":269.0212,"EPHEMERIS_TYPE":0,"CLASSIFICATION_TYPE":"U","NORAD_CAT_ID":28361,"ELEMENT_SET_NO":999,"REV_AT_EPOCH":14084,"BSTAR":0,"MEAN_MOTION_DOT":2.8e-7,"MEAN_MOTION_DDOT":0},{"OBJECT_NAME":"APRIZESAT 2","OBJECT_ID":"2004-025A","EPOCH":"2023-09-15T13:09:24.972480","MEAN_MOTION":14.37066108,"ECCENTRICITY":0.0108137,"INCLINATION":98.1062,"RA_OF_ASC_NODE":107.941,"ARG_OF_PERICENTER":45.5694,"MEAN_ANOMALY":315.428,"EPHEMERIS_TYPE":0,"CLASSIFICATION_TYPE":"U","NORAD_CAT_ID":28366,"ELEMENT_SET_NO":999,"REV_AT_EPOCH":717,"BSTAR":0.0001013,"MEAN_MOTION_DOT":2.8e-6,"MEAN_MOTION_DDOT":0},{"OBJECT_NAME":"SAUDICOMSAT 1","OBJECT_ID":"2004-025D","EPOCH":"2023-09-15T16:07:16.660704","MEAN_MOTION":14.53408864,"ECCENTRICITY":0.0032235,"INCLINATION":98.5018,"RA_OF_ASC_NODE":230.044,"ARG_OF_PERICENTER":220.083,"MEAN_ANOMALY":139.7987,"EPHEMERIS_TYPE":0,"CLASSIFICATION_TYPE":"U","NORAD_CAT_ID":28369,"ELEMENT_SET_NO":999,"REV_AT_EPOCH":1801,"BSTAR":0.00017975,"MEAN_MOTION_DOT":7.05e-6,"MEAN_MOTION_DDOT":0}]
